ONEWEB-0403             
1 50483U 21132Q   23059.42558711  .00000075  00000+0  15676-3 0  9990
2 50483  87.9192 214.8457 0001782  90.3426 269.7910 13.18687493 62812
ONEWEB-0403             
1 50483U 21132Q   23059.95672298 -.00000019  00000+0 -80520-4 0  9996
2 50483  87.9194 214.7404 0001775  90.5760 269.5576 13.18686822 64161
ONEWEB-0403             
1 50483U 21132Q   23060.86724062 -.00000053  00000+0 -16839-3 0  9994
2 50483  87.9195 214.5597 0001752  90.1191 270.0142 13.18686552 63000
ONEWEB-0403             
1 50483U 21132Q   23061.70188089  .00000085  00000+0  18398-3 0  9996
2 50483  87.9197 214.3941 0001752  90.1657 269.9676 13.18687189 63118
ONEWEB-0403             
1 50483U 21132Q   23062.38476886  .00000143  00000+0  32875-3 0  9997
2 50483  87.9198 214.2586 0001727  90.3556 269.7774 13.18687383 64489
ONEWEB-0403             
1 50483U 21132Q   23062.46064537  .00000109  00000+0  24264-3 0  9997
2 50483  87.9198 214.2436 0001732  90.3819 269.7511 13.18687436 63219
ONEWEB-0403             
1 50483U 21132Q   23062.84002857 -.00000015  00000+0 -70554-4 0  9998
2 50483  87.9199 214.1683 0001715  90.3474 269.7855 13.18686728 63260
